{"fetched_at":"2026-07-20T18:28:58.427Z","source":"https://celestrak.org/NORAD/elements/gp.php?GROUP=qianfan&FORMAT=JSON","constellation":"qianfan","records":[{"OBJECT_NAME":"QIANFAN-81","OBJECT_ID":"2025-046J","EPOCH":"2026-07-20T05:39:05.911776","CLASSIFICATION_TYPE":"U","MEAN_MOTION":13.51025172,"ECCENTRICITY":0.00146269,"INCLINATION":88.9723,"RA_OF_ASC_NODE":297.1022,"ARG_OF_PERICENTER":198.4136,"MEAN_ANOMALY":161.6487,"EPHEMERIS_TYPE":0,"NORAD_CAT_ID":63167,"ELEMENT_SET_NO":999,"REV_AT_EPOCH":7712,"BSTAR":0.00015106403,"MEAN_MOTION_DOT":0.0000011,"MEAN_MOTION_DDOT":0},{"OBJECT_NAME":"QIANFAN-82","OBJECT_ID":"2025-046K","EPOCH":"2026-07-20T06:26:34.508544","CLASSIFICATION_TYPE":"U","MEAN_MOTION":13.51019737,"ECCENTRICITY":0.00122333,"INCLINATION":88.9723,"RA_OF_ASC_NODE":297.1429,"ARG_OF_PERICENTER":203.7433,"MEAN_ANOMALY":156.3155,"EPHEMERIS_TYPE":0,"NORAD_CAT_ID":63168,"ELEMENT_SET_NO":999,"REV_AT_EPOCH":7711,"BSTAR":0.00016171145,"MEAN_MOTION_DOT":0.00000117,"MEAN_MOTION_DDOT":0},{"OBJECT_NAME":"QIANFAN-83","OBJECT_ID":"2025-046L","EPOCH":"2026-07-20T05:03:13.310208","CLASSIFICATION_TYPE":"U","MEAN_MOTION":13.62052416,"ECCENTRICITY":0.00146363,"INCLINATION":88.9724,"RA_OF_ASC_NODE":296.493,"ARG_OF_PERICENTER":178.1042,"MEAN_ANOMALY":182.0174,"EPHEMERIS_TYPE":0,"NORAD_CAT_ID":63169,"ELEMENT_SET_NO":999,"REV_AT_EPOCH":7747,"BSTAR":0.00015786909,"MEAN_MOTION_DOT":0.00000134,"MEAN_MOTION_DDOT":0},{"OBJECT_NAME":"QIANFAN-84","OBJECT_ID":"2025-046M","EPOCH":"2026-07-20T05:21:35.451072","CLASSIFICATION_TYPE":"U","MEAN_MOTION":13.51045571,"ECCENTRICITY":0.00154156,"INCLINATION":88.9723,"RA_OF_ASC_NODE":297.2802,"ARG_OF_PERICENTER":202.3379,"MEAN_ANOMALY":157.7103,"EPHEMERIS_TYPE":0,"NORAD_CAT_ID":63170,"ELEMENT_SET_NO":999,"REV_AT_EPOCH":7703,"BSTAR":0.000060450424,"MEAN_MOTION_DOT":5.1e-7,"MEAN_MOTION_DDOT":0},{"OBJECT_NAME":"QIANFAN-85","OBJECT_ID":"2025-046N","EPOCH":"2026-07-20T05:15:28.099872","CLASSIFICATION_TYPE":"U","MEAN_MOTION":13.51017384,"ECCENTRICITY":0.00127773,"INCLINATION":88.9722,"RA_OF_ASC_NODE":297.1507,"ARG_OF_PERICENTER":203.0617,"MEAN_ANOMALY":156.9962,"EPHEMERIS_TYPE":0,"NORAD_CAT_ID":63171,"ELEMENT_SET_NO":999,"REV_AT_EPOCH":7710,"BSTAR":0.00016779177,"MEAN_MOTION_DOT":0.0000012,"MEAN_MOTION_DDOT":0},{"OBJECT_NAME":"QIANFAN-86","OBJECT_ID":"2025-046P","EPOCH":"2026-07-20T05:27:18.899712","CLASSIFICATION_TYPE":"U","MEAN_MOTION":13.51024947,"ECCENTRICITY":0.00104783,"INCLINATION":88.9724,"RA_OF_ASC_NODE":297.0172,"ARG_OF_PERICENTER":205.3633,"MEAN_ANOMALY":154.7005,"EPHEMERIS_TYPE":0,"NORAD_CAT_ID":63172,"ELEMENT_SET_NO":999,"REV_AT_EPOCH":7718,"BSTAR":0.00017774539,"MEAN_MOTION_DOT":0.00000127,"MEAN_MOTION_DDOT":0},{"OBJECT_NAME":"QIANFAN-87","OBJECT_ID":"2025-046Q","EPOCH":"2026-07-20T06:32:40.075584","CLASSIFICATION_TYPE":"U","MEAN_MOTION":13.51010562,"ECCENTRICITY":0.00112181,"INCLINATION":88.9721,"RA_OF_ASC_NODE":297.1159,"ARG_OF_PERICENTER":200.8089,"MEAN_ANOMALY":159.2607,"EPHEMERIS_TYPE":0,"NORAD_CAT_ID":63173,"ELEMENT_SET_NO":999,"REV_AT_EPOCH":7712,"BSTAR":0.00014812649,"MEAN_MOTION_DOT":0.00000108,"MEAN_MOTION_DDOT":0},{"OBJECT_NAME":"QIANFAN-88","OBJECT_ID":"2025-046R","EPOCH":"2026-07-20T06:56:19.290624","CLASSIFICATION_TYPE":"U","MEAN_MOTION":13.51018136,"ECCENTRICITY":0.00113053,"INCLINATION":88.9723,"RA_OF_ASC_NODE":297.0742,"ARG_OF_PERICENTER":209.881,"MEAN_ANOMALY":150.1697,"EPHEMERIS_TYPE":0,"NORAD_CAT_ID":63174,"ELEMENT_SET_NO":999,"REV_AT_EPOCH":7715,"BSTAR":0.0001599442,"MEAN_MOTION_DOT":0.00000115,"MEAN_MOTION_DDOT":0},{"OBJECT_NAME":"QIANFAN-89","OBJECT_ID":"2025-046S","EPOCH":"2026-07-20T06:02:48.524928","CLASSIFICATION_TYPE":"U","MEAN_MOTION":13.51025266,"ECCENTRICITY":0.00162248,"INCLINATION":88.9723,"RA_OF_ASC_NODE":297.2669,"ARG_OF_PERICENTER":203.0894,"MEAN_ANOMALY":156.9529,"EPHEMERIS_TYPE":0,"NORAD_CAT_ID":63175,"ELEMENT_SET_NO":999,"REV_AT_EPOCH":7704,"BSTAR":0.00013370391,"MEAN_MOTION_DOT":9.8e-7,"MEAN_MOTION_DDOT":0},{"OBJECT_NAME":"QIANFAN-90","OBJECT_ID":"2025-046T","EPOCH":"2026-07-20T06:44:19.005792","CLASSIFICATION_TYPE":"U","MEAN_MOTION":13.51017827,"ECCENTRICITY":0.00132329,"INCLINATION":88.9723,"RA_OF_ASC_NODE":297.2369,"ARG_OF_PERICENTER":199.737,"MEAN_ANOMALY":160.3271,"EPHEMERIS_TYPE":0,"NORAD_CAT_ID":63176,"ELEMENT_SET_NO":999,"REV_AT_EPOCH":7706,"BSTAR":0.00015782838,"MEAN_MOTION_DOT":0.00000114,"MEAN_MOTION_DDOT":0},{"OBJECT_NAME":"QIANFAN-91","OBJECT_ID":"2025-233A","EPOCH":"2026-07-20T02:11:07.501920","CLASSIFICATION_TYPE":"U","MEAN_MOTION":13.51015124,"ECCENTRICITY":0.00021254,"INCLINATION":88.9981,"RA_OF_ASC_NODE":39.8599,"ARG_OF_PERICENTER":95.1343,"MEAN_ANOMALY":265.0051,"EPHEMERIS_TYPE":0,"NORAD_CAT_ID":66033,"ELEMENT_SET_NO":999,"REV_AT_EPOCH":3762,"BSTAR":0.000001827454,"MEAN_MOTION_DOT":1.3e-7,"MEAN_MOTION_DDOT":0},{"OBJECT_NAME":"QIANFAN-92","OBJECT_ID":"2025-233B","EPOCH":"2026-07-20T00:36:16.707168","CLASSIFICATION_TYPE":"U","MEAN_MOTION":13.51013601,"ECCENTRICITY":0.0001979,"INCLINATION":88.9964,"RA_OF_ASC_NODE":39.8329,"ARG_OF_PERICENTER":89.6759,"MEAN_ANOMALY":270.4619,"EPHEMERIS_TYPE":0,"NORAD_CAT_ID":66034,"ELEMENT_SET_NO":999,"REV_AT_EPOCH":3761,"BSTAR":0.000037039253,"MEAN_MOTION_DOT":3.6e-7,"MEAN_MOTION_DDOT":0},{"OBJECT_NAME":"QIANFAN-93","OBJECT_ID":"2025-233C","EPOCH":"2026-07-20T06:08:02.988096","CLASSIFICATION_TYPE":"U","MEAN_MOTION":13.51016918,"ECCENTRICITY":0.00020572,"INCLINATION":88.9991,"RA_OF_ASC_NODE":39.8703,"ARG_OF_PERICENTER":93.9064,"MEAN_ANOMALY":266.2323,"EPHEMERIS_TYPE":0,"NORAD_CAT_ID":66035,"ELEMENT_SET_NO":999,"REV_AT_EPOCH":3764,"BSTAR":0.000013988433,"MEAN_MOTION_DOT":2.1e-7,"MEAN_MOTION_DDOT":0},{"OBJECT_NAME":"QIANFAN-94","OBJECT_ID":"2025-233D","EPOCH":"2026-07-20T05:50:19.267584","CLASSIFICATION_TYPE":"U","MEAN_MOTION":13.51015919,"ECCENTRICITY":0.00021152,"INCLINATION":88.9988,"RA_OF_ASC_NODE":39.7737,"ARG_OF_PERICENTER":89.783,"MEAN_ANOMALY":270.3564,"EPHEMERIS_TYPE":0,"NORAD_CAT_ID":66036,"ELEMENT_SET_NO":999,"REV_AT_EPOCH":3769,"BSTAR":0.000031607017,"MEAN_MOTION_DOT":3.2e-7,"MEAN_MOTION_DDOT":0},{"OBJECT_NAME":"QIANFAN-95","OBJECT_ID":"2025-233E","EPOCH":"2026-07-20T02:28:53.129280","CLASSIFICATION_TYPE":"U","MEAN_MOTION":13.510169,"ECCENTRICITY":0.00022347,"INCLINATION":88.9985,"RA_OF_ASC_NODE":39.3305,"ARG_OF_PERICENTER":93.4131,"MEAN_ANOMALY":266.7276,"EPHEMERIS_TYPE":0,"NORAD_CAT_ID":66037,"ELEMENT_SET_NO":999,"REV_AT_EPOCH":3792,"BSTAR":0.000034016412,"MEAN_MOTION_DOT":3.4e-7,"MEAN_MOTION_DDOT":0},{"OBJECT_NAME":"QIANFAN-96","OBJECT_ID":"2025-233F","EPOCH":"2026-07-20T01:17:48.159168","CLASSIFICATION_TYPE":"U","MEAN_MOTION":13.51015682,"ECCENTRICITY":0.00021519,"INCLINATION":88.9984,"RA_OF_ASC_NODE":39.8782,"ARG_OF_PERICENTER":96.3991,"MEAN_ANOMALY":263.7406,"EPHEMERIS_TYPE":0,"NORAD_CAT_ID":66038,"ELEMENT_SET_NO":999,"REV_AT_EPOCH":3761,"BSTAR":0.000009314916,"MEAN_MOTION_DOT":1.8e-7,"MEAN_MOTION_DDOT":0}]}
