QIANFAN-81              
1 63167U 25046J   26201.23548509  .00000110  00000+0  15106-3 0  9994
2 63167  88.9723 297.1022 0014626 198.4136 161.6487 13.51025172 77123
QIANFAN-82              
1 63168U 25046K   26201.26845496  .00000117  00000+0  16171-3 0  9993
2 63168  88.9723 297.1429 0012233 203.7433 156.3155 13.51019737 77119
QIANFAN-83              
1 63169U 25046L   26201.21057072  .00000134  00000+0  15787-3 0  9995
2 63169  88.9724 296.4930 0014636 178.1042 182.0174 13.62052416 77479
QIANFAN-84              
1 63170U 25046M   26201.22332698  .00000051  00000+0  60450-4 0  9994
2 63170  88.9723 297.2802 0015415 202.3379 157.7103 13.51045571 77031
QIANFAN-85              
1 63171U 25046N   26201.21907523  .00000120  00000+0  16779-3 0  9990
2 63171  88.9722 297.1507 0012777 203.0617 156.9962 13.51017384 77106
QIANFAN-86              
1 63172U 25046P   26201.22730208  .00000127  00000+0  17775-3 0  9990
2 63172  88.9724 297.0172 0010478 205.3633 154.7005 13.51024947 77180
QIANFAN-87              
1 63173U 25046Q   26201.27268606  .00000108  00000+0  14813-3 0  9993
2 63173  88.9721 297.1159 0011218 200.8089 159.2607 13.51010562 77122
QIANFAN-88              
1 63174U 25046R   26201.28911216  .00000115  00000+0  15994-3 0  9996
2 63174  88.9723 297.0742 0011305 209.8810 150.1697 13.51018136 77157
QIANFAN-89              
1 63175U 25046S   26201.25195052  .00000098  00000+0  13370-3 0  9992
2 63175  88.9723 297.2669 0016224 203.0894 156.9529 13.51025266 77049
QIANFAN-90              
1 63176U 25046T   26201.28077553  .00000114  00000+0  15783-3 0  9990
2 63176  88.9723 297.2369 0013232 199.7370 160.3271 13.51017827 77062
QIANFAN-91              
1 66033U 25233A   26201.09105905  .00000013  00000+0  18275-5 0  9994
2 66033  88.9981  39.8599 0002125  95.1343 265.0051 13.51015124 37621
QIANFAN-92              
1 66034U 25233B   26201.02519337  .00000036  00000+0  37039-4 0  9999
2 66034  88.9964  39.8329 0001979  89.6759 270.4619 13.51013601 37616
QIANFAN-93              
1 66035U 25233C   26201.25559014  .00000021  00000+0  13988-4 0  9992
2 66035  88.9991  39.8703 0002057  93.9064 266.2323 13.51016918 37640
QIANFAN-94              
1 66036U 25233D   26201.24327856  .00000032  00000+0  31607-4 0  9999
2 66036  88.9988  39.7737 0002115  89.7830 270.3564 13.51015919 37690
QIANFAN-95              
1 66037U 25233E   26201.10339270  .00000034  00000+0  34016-4 0  9997
2 66037  88.9985  39.3305 0002234  93.4131 266.7276 13.51016900 37929
QIANFAN-96              
1 66038U 25233F   26201.05402962  .00000018  00000+0  93149-5 0  9996
2 66038  88.9984  39.8782 0002151  96.3991 263.7406 13.51015682 37611
